     2.100          NAVIGATION                              RINEX VERSION / TYPE
fic2rin                                 11/13/2010 01:07:13 PGM / RUN BY / DATE
                                                            END OF HEADER
25 10 11 12 18  0  0.0 -.512460246682D-04 -.238742359215D-11  .000000000000D+00
     .310000000000D+02 -.645312500000D+02  .451125934063D-08 -.114537515432D+01
    -.339932739735D-05  .642159720883D-03  .665336847305D-05  .515374931717D+04
     .496800000000D+06 -.186264514923D-08  .531517863738D+00 -.130385160446D-07
     .961677462984D+00  .255156250000D+03  .193878343349D+01 -.811748098281D-08
     .657170230921D-10  .100000000000D+01  .160900000000D+04  .100000000000D+01
     .240000000000D+01  .000000000000D+00  .465661287308D-08  .310000000000D+02
     .489606000000D+06  .400000000000D+01
26 10 11 12 18  0  0.0 -.493093393743D-04 -.807176547823D-11  .000000000000D+00
     .650000000000D+02  .437187500000D+02  .362443668662D-08  .299677256905D+01
     .224076211452D-05  .198848233558D-01  .783987343311D-05  .515364258194D+04
     .496800000000D+06  .132247805595D-06 -.147720978241D+01 -.173225998878D-06
     .988977993989D+00  .238937500000D+03  .111506447187D+01 -.737495005341D-08
    -.442875590403D-10  .100000000000D+01  .160900000000D+04  .000000000000D+00
     .240000000000D+01  .000000000000D+00 -.605359673500D-08  .650000000000D+02
     .489606000000D+06  .400000000000D+01
27 10 11 12 18  0  0.0  .207121949643D-03  .352429196937D-11  .000000000000D+00
     .280000000000D+02  .213750000000D+02  .391552023999D-08 -.214389335498D+01
     .153109431267D-05  .217518917052D-01  .433064997196D-05  .515355623245D+04
     .496800000000D+06  .238418579102D-06 -.550129505456D+00  .316649675369D-06
     .979890658482D+00  .300125000000D+03 -.134956589365D+01 -.770603527301D-08
     .190722230061D-09  .100000000000D+01  .160900000000D+04  .000000000000D+00
     .240000000000D+01  .000000000000D+00 -.419095158577D-08  .280000000000D+02
     .489606000000D+06  .400000000000D+01
28 10 11 12 18  0  0.0  .442937016487D-05  .170530256582D-11  .000000000000D+00
     .760000000000D+02 -.675625000000D+02  .435661004172D-08 -.112643200659D+01
    -.314228236675D-05  .164233830292D-01  .653043389320D-05  .515368436050D+04
     .496800000000D+06  .912696123123D-07  .584166987803D+00  .432133674622D-06
     .972304723114D+00  .258812500000D+03 -.194045637541D+01 -.814391065514D-08
     .153577825704D-10  .100000000000D+01  .160900000000D+04  .000000000000D+00
     .340000000000D+01  .000000000000D+00 -.107102096081D-07  .760000000000D+02
     .489606000000D+06  .400000000000D+01
29 10 11 12 18  0  0.0  .163143035024D-03  .284217094304D-11  .000000000000D+00
     .580000000000D+02 -.217812500000D+02  .464876506830D-08  .941993810989D+00
    -.107474625111D-05  .251841277350D-02  .912137329578D-05  .515363442612D+04
     .496800000000D+06 -.316649675369D-07  .162802842795D+01 -.763684511185D-07
     .960621132263D+00  .206375000000D+03 -.125386279939D+01 -.802640576059D-08
     .265011038773D-09  .100000000000D+01  .160900000000D+04  .000000000000D+00
     .240000000000D+01  .000000000000D+00 -.838190317154D-08  .580000000000D+02
     .489606000000D+06  .400000000000D+01
30 10 11 12 18  0  0.0  .295725651085D-03  .341060513165D-11  .000000000000D+00
     .620000000000D+02 -.652187500000D+02  .463197865479D-08 -.129033310572D+01
    -.311806797981D-05  .130853522569D-01  .672042369843D-05  .515534709358D+04
     .496800000000D+06 -.134110450745D-06  .502912260589D+00  .268220901489D-06
     .958336561856D+00  .250250000000D+03  .155588137081D+01 -.825034365993D-08
     .503592405216D-10  .100000000000D+01  .160900000000D+04  .000000000000D+00
     .340000000000D+01  .000000000000D+00 -.791624188423D-08  .620000000000D+02
     .489606000000D+06  .400000000000D+01
31 10 11 12 18  0  0.0  .808341428638D-05  .375166564481D-11  .000000000000D+00
     .540000000000D+02  .243750000000D+01  .404802575938D-08  .160205483533D+01
     .130385160446D-06  .755903567187D-02  .435113906860D-05  .515380119896D+04
     .496800000000D+06  .223517417908D-06 -.494420868168D+00 -.372529029846D-07
     .978487086600D+00  .301375000000D+03 -.104883112647D+01 -.797854662421D-08
     .124290891500D-09  .100000000000D+01  .160900000000D+04  .000000000000D+00
     .240000000000D+01  .000000000000D+00 -.130385160446D-07  .540000000000D+02
     .489606000000D+06  .400000000000D+01
32 10 11 12 18  0  0.0 -.130019616336D-03 -.852651282912D-11  .000000000000D+00
     .115000000000D+03  .294062500000D+02  .460769192886D-08  .244039006896D+01
     .155344605446D-05  .126183433458D-01  .777840614319D-05  .515358206367D+04
     .496800000000D+06  .216066837311D-06 -.250904431410D+01  .135973095894D-06
     .957383425377D+00  .223750000000D+03 -.893067753457D+00 -.792140138673D-08
    -.484305887570D-09  .100000000000D+01  .160900000000D+04  .000000000000D+00
     .340000000000D+01  .000000000000D+00 -.372529029846D-08  .115000000000D+03
     .489606000000D+06  .400000000000D+01
 3 10 11 12 17 59 44.0  .634312164038D-03  .522959453519D-11  .000000000000D+00
     .700000000000D+01 -.337500000000D+02  .517128683343D-08 -.305816664873D+01
    -.197067856789D-05  .138164429227D-01  .984780490398D-05  .515362597656D+04
     .496784000000D+06  .102445483208D-06  .146956206363D+01 -.201165676117D-06
     .927510282709D+00  .169625000000D+03  .105782036747D+01 -.809819446516D-08
     .248581783000D-09  .100000000000D+01  .160900000000D+04  .000000000000D+00
     .240000000000D+01  .000000000000D+00 -.465661287308D-08  .700000000000D+01
     .491736000000D+06  .400000000000D+01
18 10 11 12 17 59 44.0  .104297418147D-03  .216004991671D-11  .000000000000D+00
     .600000000000D+01  .195000000000D+02  .529236330532D-08 -.395007559113D+00
     .101514160633D-05  .118336720625D-01  .729411840439D-05  .515374337769D+04
     .496784000000D+06 -.502914190292D-07 -.257584792837D+01  .171363353729D-06
     .935539894798D+00  .226656250000D+03 -.228214713757D+01 -.861750181068D-08
    -.398945189097D-09  .100000000000D+01  .160900000000D+04  .000000000000D+00
     .240000000000D+01  .000000000000D+00 -.107102096081D-07  .600000000000D+01
     .494136000000D+06  .400000000000D+01
32 10 11 12 17 59 44.0 -.130017753690D-03 -.852651282912D-11  .000000000000D+00
     .310000000000D+02  .294062500000D+02  .460769192886D-08  .243805605192D+01
     .155344605446D-05  .126183415996D-01  .777840614319D-05  .515358206177D+04
     .496784000000D+06  .216066837311D-06 -.250904420584D+01  .135973095894D-06
     .957383428303D+00  .223750000000D+03 -.893067608628D+00 -.792140138673D-08
    -.484305887570D-09  .100000000000D+01  .160900000000D+04  .000000000000D+00
     .240000000000D+01  .000000000000D+00 -.372529029846D-08  .310000000000D+02
     .494406000000D+06  .400000000000D+01
 3 10 11 12 19 59 44.0  .634349416941D-03  .522959453519D-11  .000000000000D+00
     .430000000000D+02 -.262812500000D+02  .521057418419D-08 -.200808500379D+01
    -.153668224812D-05  .138186939294D-01  .858306884766D-05  .515362058067D+04
     .503984000000D+06  .191852450371D-06  .146950332454D+01 -.987201929092D-07
     .927512436124D+00  .189812500000D+03  .105795517245D+01 -.812248119109D-08
     .315013121561D-09  .100000000000D+01  .160900000000D+04  .000000000000D+00
     .240000000000D+01  .000000000000D+00 -.465661287308D-08  .430000000000D+02
     .496806000000D+06  .400000000000D+01
18 10 11 12 19 59 44.0  .104312784970D-03  .216004991671D-11  .000000000000D+00
     .700000000000D+01  .128437500000D+02  .535486590880D-08  .655145392841D+00
     .782310962677D-06  .118326675147D-01  .722333788872D-05  .515374143600D+04
     .503984000000D+06 -.100582838058D-06 -.257590995902D+01  .949949026108D-07
     .935536979202D+00  .229000000000D+03 -.228215536502D+01 -.862214486123D-08
    -.428946438769D-09  .100000000000D+01  .160900000000D+04  .000000000000D+00
     .240000000000D+01  .000000000000D+00 -.107102096081D-07  .700000000000D+01
     .496806000000D+06  .400000000000D+01
32 10 11 12 19 59 44.0 -.130079220980D-03 -.852651282912D-11  .000000000000D+00
     .320000000000D+02  .283125000000D+02  .454911806046D-08 -.279489479098D+01
     .149570405483D-05  .126181577798D-01  .786036252975D-05  .515358241272D+04
     .503984000000D+06 -.186264514923D-07 -.250910188285D+01  .197440385818D-06
     .957380945731D+00  .223031250000D+03 -.893064220509D+00 -.782032574796D-08
    -.310370071016D-09  .100000000000D+01  .160900000000D+04  .000000000000D+00
     .240000000000D+01  .000000000000D+00 -.372529029846D-08  .320000000000D+02
     .496806000000D+06  .400000000000D+01
 1 10 11 12 20  0  0.0 -.181576702744D-03 -.363797880709D-11  .000000000000D+00
     .480000000000D+02 -.639375000000D+02  .434160941689D-08 -.403960977636D+00
    -.326521694660D-05  .440158182755D-02  .653043389320D-05  .515352782059D+04
     .504000000000D+06 -.931322574615D-08  .543546949026D+00  .372529029846D-07
     .966828755956D+00  .256468750000D+03  .948547237794D+00 -.812212403335D-08
     .464305054455D-10  .100000000000D+01  .160900000000D+04  .000000000000D+00
     .240000000000D+01  .630000000000D+02 -.190921127796D-07  .480000000000D+02
     .496806000000D+06  .400000000000D+01
 2 10 11 12 20  0  0.0  .301942229271D-03  .250111042988D-11  .000000000000D+00
     .102000000000D+03  .192187500000D+02  .528986320118D-08 -.189727720137D+01
     .983476638794D-06  .977940903977D-02  .751018524170D-05  .515366037941D+04
     .504000000000D+06  .111758708954D-07  .262468523505D+01 -.230967998505D-06
     .939532062184D+00  .223468750000D+03 -.313304896477D+01 -.833356141200D-08
     .215008955986D-09  .100000000000D+01  .160900000000D+04  .000000000000D+00
     .240000000000D+01  .000000000000D+00 -.172294676304D-07  .102000000000D+03
     .496806000000D+06  .400000000000D+01
